[{"OBJECT_NAME":"STARLINK-36341","OBJECT_ID":"2026-036Q","EPOCH":"2026-03-09T21:21:52.154208","MEAN_MOTION":15.82409136,"ECCENTRICITY":0.00022595,"INCLINATION":42.9987,"RA_OF_ASC_NODE":248.4207,"ARG_OF_PERICENTER":306.3888,"MEAN_ANOMALY":53.6775,"EPHEMERIS_TYPE":0,"CLASSIFICATION_TYPE":"U","NORAD_CAT_ID":67918,"ELEMENT_SET_NO":999,"REV_AT_EPOCH":370,"BSTAR":0.0033126246,"MEAN_MOTION_DOT":0.00777423,"MEAN_MOTION_DDOT":0},{"OBJECT_NAME":"NOAA 16 DEB","OBJECT_ID":"2000-055AJ","EPOCH":"2026-03-09T22:45:58.695264","MEAN_MOTION":15.81251105,"ECCENTRICITY":0.00074025,"INCLINATION":99.0584,"RA_OF_ASC_NODE":244.5578,"ARG_OF_PERICENTER":65.5662,"MEAN_ANOMALY":294.6372,"EPHEMERIS_TYPE":0,"CLASSIFICATION_TYPE":"U","NORAD_CAT_ID":41075,"ELEMENT_SET_NO":999,"REV_AT_EPOCH":55075,"BSTAR":0.0049218825,"MEAN_MOTION_DOT":0.01069422,"MEAN_MOTION_DDOT":0}]
